start=new Date('2022-07-21T00:00:00.000Z').valueOf();
sats=[{"APOAPSIS":"358.942","RA_OF_ASC_NODE":"20.3863","OBJECT_NAME":"STARLINK-4345","FILE":"3518181","MEAN_ELEMENT_THEORY":"SGP4","ELEMENT_SET_NO":"999","MEAN_ANOMALY":"102.6087","NORAD_CAT_ID":"53049","EPHEMERIS_TYPE":"0","MEAN_MOTION_DDOT":"0.0000000000000","TIME_SYSTEM":"UTC","REF_FRAME":"TEME","MEAN_MOTION":"15.70289975","DECAY_DATE":null,"CENTER_NAME":"EARTH","TLE_LINE2":"2 53049  97.6571  20.3863 0001295  85.0463 102.6087 15.70289975  1551","GP_ID":"208508586","LAUNCH_DATE":"2022-07-11","SEMIMAJOR_AXIS":"6736.205","ARG_OF_PERICENTER":"85.0463","PERIAPSIS":"357.197","OBJECT_TYPE":"PAYLOAD","BSTAR":"-0.00025196000000","MEAN_MOTION_DOT":"-0.00030568","RCS_SIZE":null,"ECCENTRICITY":"0.00012950","PERIOD":"91.703","EPOCH":"2022-07-20T22:00:01.999584","OBJECT_ID":"2022-077G","TLE_LINE1":"1 53049U 22077G   22201.91668981 -.00030568  00000-0 -25196-3 0  9994","CLASSIFICATION_TYPE":"U","SITE":"AFWTR","REV_AT_EPOCH":"155","COUNTRY_CODE":"US","INCLINATION":"97.6571"},{"APOAPSIS":"359.091","OBJECT_NAME":"STARLINK-4343","RA_OF_ASC_NODE":"20.3846","ELEMENT_SET_NO":"999","MEAN_ANOMALY":"96.8585","MEAN_ELEMENT_THEORY":"SGP4","FILE":"3518154","EPHEMERIS_TYPE":"0","NORAD_CAT_ID":"53050","DECAY_DATE":null,"MEAN_MOTION":"15.70253483","REF_FRAME":"TEME","TIME_SYSTEM":"UTC","MEAN_MOTION_DDOT":"0.0000000000000","GP_ID":"208507741","TLE_LINE2":"2 53050  97.6577  20.3846 0001362  89.6270  96.8585 15.70253483  2138","CENTER_NAME":"EARTH","SEMIMAJOR_AXIS":"6736.309","LAUNCH_DATE":"2022-07-11","PERIAPSIS":"357.256","OBJECT_TYPE":"PAYLOAD","BSTAR":"0.00032220000000","MEAN_MOTION_DOT":"0.00039055","ARG_OF_PERICENTER":"89.6270","RCS_SIZE":null,"EPOCH":"2022-07-20T22:00:01.999584","OBJECT_ID":"2022-077H","ECCENTRICITY":"0.00013620","PERIOD":"91.705","REV_AT_EPOCH":"213","CLASSIFICATION_TYPE":"U","SITE":"AFWTR","TLE_LINE1":"1 53050U 22077H   22201.91668981  .00039055  00000-0  32220-3 0  9990","INCLINATION":"97.6577","COUNTRY_CODE":"US"},{"COUNTRY_CODE":"US","INCLINATION":"97.6576","PERIOD":"91.704","ECCENTRICITY":"0.00017690","EPOCH":"2022-07-20T22:00:01.999584","OBJECT_ID":"2022-077J","CLASSIFICATION_TYPE":"U","SITE":"AFWTR","TLE_LINE1":"1 53051U 22077J   22201.91668981  .00018223  00000-0  15122-3 0  9997","REV_AT_EPOCH":"213","ARG_OF_PERICENTER":"88.8258","OBJECT_TYPE":"PAYLOAD","PERIAPSIS":"356.951","BSTAR":"0.00015122000000","MEAN_MOTION_DOT":"0.00018223","RCS_SIZE":null,"SEMIMAJOR_AXIS":"6736.278","LAUNCH_DATE":"2022-07-11","TLE_LINE2":"2 53051  97.6576  20.3870 0001769  88.8258 100.0273 15.70264335  2133","CENTER_NAME":"EARTH","GP_ID":"208508244","TIME_SYSTEM":"UTC","REF_FRAME":"TEME","MEAN_MOTION_DDOT":"0.0000000000000","MEAN_MOTION":"15.70264335","DECAY_DATE":null,"FILE":"3518154","MEAN_ANOMALY":"100.0273","ELEMENT_SET_NO":"999","MEAN_ELEMENT_THEORY":"SGP4","NORAD_CAT_ID":"53051","EPHEMERIS_TYPE":"0","APOAPSIS":"359.335","RA_OF_ASC_NODE":"20.3870","OBJECT_NAME":"STARLINK-4336"},{"INCLINATION":"97.6559","COUNTRY_CODE":"US","REV_AT_EPOCH":"213","SITE":"AFWTR","CLASSIFICATION_TYPE":"U","TLE_LINE1":"1 53052U 22077K   22201.91668981  .00004198  00000-0  35770-4 0  9996","OBJECT_ID":"2022-077K","EPOCH":"2022-07-20T22:00:01.999584","PERIOD":"91.706","ECCENTRICITY":"0.00013510","RCS_SIZE":null,"PERIAPSIS":"357.309","OBJECT_TYPE":"PAYLOAD","BSTAR":"0.00003577000000","MEAN_MOTION_DOT":"0.00004198","ARG_OF_PERICENTER":"88.3265","SEMIMAJOR_AXIS":"6736.354","LAUNCH_DATE":"2022-07-11","GP_ID":"208507751","CENTER_NAME":"EARTH","TLE_LINE2":"2 53052  97.6559  20.3854 0001351  88.3265  98.7570 15.70237659  2139","MEAN_MOTION":"15.70237659","DECAY_DATE":null,"REF_FRAME":"TEME","TIME_SYSTEM":"UTC","MEAN_MOTION_DDOT":"0.0000000000000","EPHEMERIS_TYPE":"0","NORAD_CAT_ID":"53052","MEAN_ANOMALY":"98.7570","ELEMENT_SET_NO":"999","MEAN_ELEMENT_THEORY":"SGP4","FILE":"3518155","OBJECT_NAME":"STARLINK-4341","RA_OF_ASC_NODE":"20.3854","APOAPSIS":"359.129"},{"DECAY_DATE":null,"MEAN_MOTION":"15.70295969","REF_FRAME":"TEME","TIME_SYSTEM":"UTC","MEAN_MOTION_DDOT":"0.0000000000000","GP_ID":"208507750","CENTER_NAME":"EARTH","TLE_LINE2":"2 53053  97.6561  20.3822 0001625  87.1881 102.8509 15.70295969  2130","APOAPSIS":"359.147","OBJECT_NAME":"STARLINK-4337","RA_OF_ASC_NODE":"20.3822","MEAN_ANOMALY":"102.8509","ELEMENT_SET_NO":"999","MEAN_ELEMENT_THEORY":"SGP4","FILE":"3518155","EPHEMERIS_TYPE":"0","NORAD_CAT_ID":"53053","EPOCH":"2022-07-20T22:00:01.999584","OBJECT_ID":"2022-077L","ECCENTRICITY":"0.00016250","PERIOD":"91.702","REV_AT_EPOCH":"213","CLASSIFICATION_TYPE":"U","SITE":"AFWTR","TLE_LINE1":"1 53053U 22077L   22201.91668981 -.00209192  00000-0 -17671-2 0  9998","INCLINATION":"97.6561","COUNTRY_CODE":"US","SEMIMAJOR_AXIS":"6736.187","LAUNCH_DATE":"2022-07-11","PERIAPSIS":"356.958","OBJECT_TYPE":"PAYLOAD","MEAN_MOTION_DOT":"-0.00209192","BSTAR":"-0.00176710000000","ARG_OF_PERICENTER":"87.1881","RCS_SIZE":null},{"COUNTRY_CODE":"US","INCLINATION":"97.6558","TLE_LINE1":"1 53054U 22077M   22201.91668981  .00386581  00000-0  30790-2 0  9992","SITE":"AFWTR","CLASSIFICATION_TYPE":"U","REV_AT_EPOCH":"213","PERIOD":"91.719","ECCENTRICITY":"0.00010150","EPOCH":"2022-07-20T22:00:01.999584","OBJECT_ID":"2022-077M","RCS_SIZE":null,"ARG_OF_PERICENTER":"80.9618","MEAN_MOTION_DOT":"0.00386581","OBJECT_TYPE":"PAYLOAD","PERIAPSIS":"358.158","BSTAR":"0.00307900000000","LAUNCH_DATE":"2022-07-11","SEMIMAJOR_AXIS":"6736.977","CENTER_NAME":"EARTH","TLE_LINE2":"2 53054  97.6558  20.3789 0001015  80.9618 107.3097 15.70019990  2131","GP_ID":"208508254","MEAN_MOTION_DDOT":"0.0000000000000","REF_FRAME":"TEME","TIME_SYSTEM":"UTC","MEAN_MOTION":"15.70019990","DECAY_DATE":null,"NORAD_CAT_ID":"53054","EPHEMERIS_TYPE":"0","FILE":"3518155","MEAN_ELEMENT_THEORY":"SGP4","ELEMENT_SET_NO":"999","MEAN_ANOMALY":"107.3097","RA_OF_ASC_NODE":"20.3789","OBJECT_NAME":"STARLINK-4339","APOAPSIS":"359.526"},{"MEAN_MOTION_DDOT":"0.0000000000000","REF_FRAME":"TEME","TIME_SYSTEM":"UTC","DECAY_DATE":null,"MEAN_MOTION":"15.70141422","CENTER_NAME":"EARTH","TLE_LINE2":"2 53055  97.6570  20.3879 0001575  92.2676  98.8624 15.70141422  2133","GP_ID":"208507768","RA_OF_ASC_NODE":"20.3879","OBJECT_NAME":"STARLINK-4338","APOAPSIS":"359.555","NORAD_CAT_ID":"53055","EPHEMERIS_TYPE":"0","FILE":"3518178","MEAN_ELEMENT_THEORY":"SGP4","ELEMENT_SET_NO":"999","MEAN_ANOMALY":"98.8624","TLE_LINE1":"1 53055U 22077N   22201.91668981  .00121006  00000-0  99089-3 0  9999","SITE":"AFWTR","CLASSIFICATION_TYPE":"U","REV_AT_EPOCH":"213","ECCENTRICITY":"0.00015750","PERIOD":"91.711","OBJECT_ID":"2022-077N","EPOCH":"2022-07-20T22:00:01.999584","COUNTRY_CODE":"US","INCLINATION":"97.6570","LAUNCH_DATE":"2022-07-11","SEMIMAJOR_AXIS":"6736.629","RCS_SIZE":null,"ARG_OF_PERICENTER":"92.2676","OBJECT_TYPE":"PAYLOAD","PERIAPSIS":"357.433","MEAN_MOTION_DOT":"0.00121006","BSTAR":"0.00099089000000"},{"CLASSIFICATION_TYPE":"U","SITE":"AFWTR","TLE_LINE1":"1 53056U 22077P   22201.91668981 -.00030788  00000-0 -25407-3 0  9991","REV_AT_EPOCH":"213","PERIOD":"91.704","ECCENTRICITY":"0.00014180","EPOCH":"2022-07-20T22:00:01.999584","OBJECT_ID":"2022-077P","COUNTRY_CODE":"US","INCLINATION":"97.6575","SEMIMAJOR_AXIS":"6736.282","LAUNCH_DATE":"2022-07-11","RCS_SIZE":null,"ARG_OF_PERICENTER":"92.6197","OBJECT_TYPE":"PAYLOAD","PERIAPSIS":"357.192","BSTAR":"-0.00025407000000","MEAN_MOTION_DOT":"-0.00030788","TIME_SYSTEM":"UTC","REF_FRAME":"TEME","MEAN_MOTION_DDOT":"0.0000000000000","MEAN_MOTION":"15.70262744","DECAY_DATE":null,"TLE_LINE2":"2 53056  97.6575  20.3867 0001418  92.6197  96.8805 15.70262744  2134","CENTER_NAME":"EARTH","GP_ID":"208507767","RA_OF_ASC_NODE":"20.3867","OBJECT_NAME":"STARLINK-4314","APOAPSIS":"359.103","NORAD_CAT_ID":"53056","EPHEMERIS_TYPE":"0","FILE":"3518178","ELEMENT_SET_NO":"999","MEAN_ANOMALY":"96.8805","MEAN_ELEMENT_THEORY":"SGP4"},{"APOAPSIS":"359.180","RA_OF_ASC_NODE":"20.3883","OBJECT_NAME":"STARLINK-4252","FILE":"3518156","MEAN_ELEMENT_THEORY":"SGP4","MEAN_ANOMALY":"97.6801","ELEMENT_SET_NO":"999","NORAD_CAT_ID":"53057","EPHEMERIS_TYPE":"0","MEAN_MOTION_DDOT":"0.0000000000000","TIME_SYSTEM":"UTC","REF_FRAME":"TEME","MEAN_MOTION":"15.70239699","DECAY_DATE":null,"TLE_LINE2":"2 53057  97.6569  20.3883 0001435  94.7164  97.6801 15.70239699  2130","CENTER_NAME":"EARTH","GP_ID":"208508277","LAUNCH_DATE":"2022-07-11","SEMIMAJOR_AXIS":"6736.348","ARG_OF_PERICENTER":"94.7164","PERIAPSIS":"357.247","OBJECT_TYPE":"PAYLOAD","MEAN_MOTION_DOT":"0.00101963","BSTAR":"0.00083364000000","RCS_SIZE":null,"ECCENTRICITY":"0.00014350","PERIOD":"91.706","EPOCH":"2022-07-20T22:00:01.999584","OBJECT_ID":"2022-077Q","TLE_LINE1":"1 53057U 22077Q   22201.91668981  .00101963  00000-0  83364-3 0  9990","CLASSIFICATION_TYPE":"U","SITE":"AFWTR","REV_AT_EPOCH":"213","COUNTRY_CODE":"US","INCLINATION":"97.6569"},{"MEAN_MOTION":"15.70224680","DECAY_DATE":null,"TIME_SYSTEM":"UTC","REF_FRAME":"TEME","MEAN_MOTION_DDOT":"0.0000000000000","GP_ID":"208509123","TLE_LINE2":"2 53058  97.6566  20.3870 0001638  82.6210 108.0004 15.70224680  1558","CENTER_NAME":"EARTH","APOAPSIS":"359.360","OBJECT_NAME":"STARLINK-4317","RA_OF_ASC_NODE":"20.3870","MEAN_ANOMALY":"108.0004","ELEMENT_SET_NO":"999","MEAN_ELEMENT_THEORY":"SGP4","FILE":"3518183","EPHEMERIS_TYPE":"0","NORAD_CAT_ID":"53058","EPOCH":"2022-07-20T22:00:01.999584","OBJECT_ID":"2022-077R","PERIOD":"91.707","ECCENTRICITY":"0.00016380","REV_AT_EPOCH":"155","SITE":"AFWTR","CLASSIFICATION_TYPE":"U","TLE_LINE1":"1 53058U 22077R   22201.91668981  .00124083  00000-0  10122-2 0  9990","INCLINATION":"97.6566","COUNTRY_CODE":"US","SEMIMAJOR_AXIS":"6736.391","LAUNCH_DATE":"2022-07-11","OBJECT_TYPE":"PAYLOAD","MEAN_MOTION_DOT":"0.00124083","PERIAPSIS":"357.153","BSTAR":"0.00101220000000","ARG_OF_PERICENTER":"82.6210","RCS_SIZE":null}];
